TDRS 3                  
1 19548U 88091B   16228.96116516 -.00000303  00000-0  00000+0 0  9993
2 19548  14.8305  11.3672 0033804 303.6114 293.3403  1.00282254 89348
SKYNET 4C               
1 20776U 90079A   16228.15698901 -.00000040  00000-0  00000+0 0  9999
2 20776  13.6667  19.2322 0002628 145.2482 214.8364  1.00271800 94916
TDRS 5                  
1 21639U 91054B   16229.54127984  .00000083  00000-0  00000+0 0  9990
2 21639  14.1546  24.6999 0022426 335.3827 352.4898  1.00277991 91690
TDRS 6                  
1 22314U 93003B   16228.88646052 -.00000296  00000-0  00000-0 0  9993
2 22314  13.6563  27.5860 0004274 249.1157 321.3393  1.00269540 86423
INTELSAT 701 (IS-701)   
1 22871U 93066A   16229.14411477 -.00000228  00000-0  00000+0 0  9995
2 22871   3.6152  68.6536 0002855  77.2560 201.4152  1.00271067 83336
NATO 4B                 
1 22921U 93076A   16228.10818432  .00000126  00000-0  00000+0 0  9995
2 22921  12.0397  26.0927 0002377 131.6852 237.6865  1.00270927 83074
INTELSAT 702 (IS-702)   
1 23124U 94034A   16228.19470473  .00000141  00000-0  00000+0 0  9991
2 23124   3.9589  66.8131 0000333 150.0894 210.1153  1.00275078 95354
OPTUS B3                
1 23227U 94055A   16228.38189954 -.00000090  00000-0  00000+0 0  9994
2 23227   6.9101  52.4564 0003515 113.0060 100.4319  1.00272653 80413
ASTRA 1D                
1 23331U 94070A   16229.43289883 -.00000295  00000-0  00000+0 0  9993
2 23331   7.0890  51.5691 0002936  88.7894 293.4268  1.00271060 80154
BRASILSAT B2            
1 23536U 95016A   16228.21423876 -.00000287  00000-0  00000+0 0  9999
2 23536   6.7069  53.4010 0002209 112.6804 167.0858  1.00270939 78288
AMSC 1                  
1 23553U 95019A   16228.50494055 -.00000121  00000-0  00000+0 0  9997
2 23553   9.6812  42.6565 0003414 128.2527 231.8978  1.00272262 78143
TDRS 7                  
1 23613U 95035B   16229.07433168 -.00000205  00000-0  00000+0 0  9996
2 23613  14.8344  18.4134 0020249  33.6973  24.4375  1.00273610 77133
ECHOSTAR 1              
1 23754U 95073A   16229.27858772 -.00000252  00000-0  00000+0 0  9990
2 23754   0.1708  92.2875 0003023  69.2598 186.5745  1.00269695 75421
INMARSAT 3-F1           
1 23839U 96020A   16228.93561013 -.00000003  00000-0  00000+0 0  9992
2 23839   3.4015  68.9375 0005202  79.5017 217.6125  1.00272126 74596
ASTRA 1F                
1 23842U 96021A   16229.18211237  .00000127  00000-0  00000+0 0  9991
2 23842   0.0788 296.3253 0004009 208.8915 289.6407  1.00272326 74314
MSAT M1                 
1 23846U 96022A   16227.54302805 -.00000091  00000-0  00000-0 0  9998
2 23846   7.2770  51.1663 0004513  95.9050 264.2888  1.00272147 74408
PALAPA C2               
1 23864U 96030A   16228.85263354 -.00000250  00000-0  00000+0 0  9993
2 23864   5.0027  60.9424 0000468 116.8725 239.8478  1.00270778 74163
INMARSAT 3-F2           
1 24307U 96053A   16229.32081280 -.00000136  00000-0  00000+0 0  9993
2 24307   2.0069  79.2589 0004663  70.5763 275.2880  1.00272229 73009
AMC-1 (GE-1)            
1 24315U 96054A   16229.45528928  .00000047  00000-0  00000+0 0  9992
2 24315   0.9332  86.6698 0003176  63.6601 209.6881  1.00272578 73013
AFRICASAT-2 (MEASAT-2)  
1 24653U 96063B   16229.26235633 -.00000235  00000-0  00000+0 0  9994
2 24653   7.0069  52.0049 0010003 156.2546 359.2826  1.00272814 72332
EUTELSAT 48A            
1 24665U 96067A   16229.05211718  .00000105  00000-0  00000+0 0  9991
2 24665   5.8423  57.1762 0004286  95.2594 239.4331  1.00274440 72667
INMARSAT 3-F3           
1 24674U 96070A   16229.35604740  .00000026  00000-0  00000+0 0  9991
2 24674   2.8320  73.2663 0004762  80.1521 118.0390  1.00274341 71959
AMC-2 (GE-2)            
1 24713U 97002A   16229.51932265 -.00000222  00000-0  00000+0 0  9994
2 24713   3.7659  67.5689 0005069  71.4573 288.4220  1.00272536 22317
INTELSAT 26 (IS-26)     
1 24732U 97007A   16227.84260750 -.00000004  00000-0  00000+0 0  9995
2 24732   6.9763  52.3159 0002676  83.0343 195.9192  1.00272234 71249
GALAXY 25 (G-25)        
1 24812U 97026A   16229.35543319 -.00000174  00000-0  00000+0 0  9996
2 24812   0.0138  66.5914 0002937  81.2387 212.1869  1.00272205 70344
ABS-3                   
1 24901U 97042A   16229.18553365  .00000067  00000-0  00000+0 0  9996
2 24901   4.3259  65.0589 0004911  82.1336 296.7756  1.00411043 69519
INTELSAT 5 (IS-5)       
1 24916U 97046A   16228.86455969 -.00000152  00000-0  00000+0 0  9997
2 24916   2.9480  72.6382 0003250  72.4791 287.7989  1.00271448 69591
METEOSAT-7              
1 24932U 97049B   16229.04883670  .00000043  00000-0  00000+0 0  9991
2 24932  10.2778  40.0675 0000964 187.8837 172.2296  1.00272210 69403
AMC-3 (GE-3)            
1 24936U 97050A   16229.43555594 -.00000284  00000-0  00000+0 0  9999
2 24936   0.0175 268.7185 0001866 259.6120 246.7247  1.00269442 69434
NSS-5                   
1 24957U 97053A   16229.02498744  .00000098  00000-0  00000+0 0  9995
2 24957   3.2461  70.8620 0003578  66.8478 246.6260  1.00270476 69211
ECHOSTAR 3              
1 25004U 97059A   16228.49820687 -.00000294  00000-0  00000+0 0  9999
2 25004   1.5237  81.5978 0001945  77.4536 282.8369  1.00272867 69129
JCSAT-1B                
1 25067U 97075A   16228.84901550 -.00000216  00000-0  00000+0 0  9998
2 25067   5.0217  60.7510 0004167 139.2130 220.3435  1.00272367 68532
ASTRA 1G                
1 25071U 97076A   16228.99632703  .00000014  00000-0  00000+0 0  9996
2 25071   1.6996  79.4210 0003643  55.0385 251.8285  1.00268766 68510
BRASILSAT B3            
1 25152U 98006A   16227.55237297 -.00000182  00000-0  00000+0 0  9997
2 25152   3.4389  70.0108 0002355  76.9570 283.2646  1.00272643 67895
INMARSAT 3-F5           
1 25153U 98006B   16229.32319333 -.00000299  00000-0  00000+0 0  9996
2 25153   1.9678  74.5362 0005354  74.4179 238.5086  1.00268606 67874
NSS-806                 
1 25239U 98014A   16229.21052278 -.00000290  00000-0  00000+0 0  9991
2 25239   0.0991 304.4931 0004241 199.6443 209.1709  1.00269527 67635
CHINASAT 5A (ZX 5A)     
1 25354U 98033A   16229.47940227 -.00000095  00000-0  00000+0 0  9991
2 25354   0.6056  88.7837 0005183  31.7964 180.3156  1.00272670 71227
THOR III                
1 25358U 98035A   16228.28153808 -.00000052  00000-0  00000+0 0  9999
2 25358   4.8954  60.9470 0001767  94.1638 266.0468  1.00271600 66688
INTELSAT 805 (IS-805)   
1 25371U 98037A   16228.60046127 -.00000041  00000-0  00000+0 0  9995
2 25371   0.0578 282.4697 0003081 227.8864 199.2393  1.00272767 66535
ASTRA 2A                
1 25462U 98050A   16228.79077058 -.00000370  00000-0  00000+0 0  9993
2 25462   0.0407 219.9870 0002313 281.5976 221.1906  1.00270629 65723
AFRISTAR                
1 25515U 98063A   16229.13452164  .00000113  00000-0  00000+0 0  9994
2 25515   2.7086  70.5426 0004162  78.1819 245.6167  1.00271651 65100
INTELSAT 8 (IS-8)       
1 25522U 98065A   16228.60046127 -.00000043  00000-0  00000+0 0  9996
2 25522   0.3788  89.5802 0003155  60.2693 199.6338  1.00272678 65098
JCSAT-4A                
1 25630U 99006A   16229.02866843 -.00000168  00000-0  00000+0 0  9992
2 25630   1.6675  81.5719 0001945  52.9856 282.5608  1.00272446 63970
SKYNET 4E               
1 25639U 99009B   16228.15049546  .00000017  00000-0  00000+0 0  9992
2 25639   9.8416  31.0252 0002895 115.8939 237.2171  1.00272254 63980
ASIASAT 3S              
1 25657U 99013A   16229.47905924 -.00000211  00000-0  00000+0 0  9991
2 25657   1.8872  79.7264 0002621  77.1707 131.2589  1.00271519 63800
NIMIQ 1                 
1 25740U 99027A   16229.51932265 -.00000211  00000-0  00000+0 0  9992
2 25740   0.0787 277.0571 0003626 219.0174 289.7165  1.00272134 63199
ASTRA 1H                
1 25785U 99033A   16229.05166321  .00000069  00000-0  00000+0 0  9999
2 25785   3.2305  71.0261 0002750  67.6634 260.0871  1.00273616 62766
TELKOM 1                
1 25880U 99042A   16229.42564034 -.00000356  00000-0  00000+0 0  9999
2 25880   0.0133 146.0436 0001739  61.0630  19.3925  1.00269426 62346
ABS-7                   
1 25894U 99046A   16228.88256841 -.00000373  00000-0  00000+0 0  9990
2 25894   0.0479 268.8875 0002018 207.5534 282.0906  1.00270456 61123
ABS-6                   
1 25924U 99053A   16228.65702389 -.00000131  00000-0  00000+0 0  9992
2 25924   0.0522 279.7788 0002774 204.0298 236.2166  1.00270429 61857
TELSTAR 12 (ORION 2)    
1 25949U 99059A   16229.48176538 -.00000074  00000-0  00000+0 0  9994
2 25949   0.2948  89.5744 0002665  65.1248 234.8380  1.00271910 61518
AMC-4 (GE-4)            
1 25954U 99060A   16228.28588740 -.00000283  00000-0  00000+0 0  9993
2 25954   0.0098  49.9861 0002353  71.4670 238.5687  1.00269742 61466
GALAXY 11 (G-11)        
1 26038U 99071A   16228.95977400  .00000036  00000-0  00000-0 0  9994
2 26038   0.0382 312.0387 0001325  62.0861 356.2934  1.00272414  7608
HISPASAT 1C             
1 26071U 00007A   16229.28309589 -.00000223  00000-0  00000+0 0  9994
2 26071   0.0311  42.1007 0002347 106.6925 194.3725  1.00270453 60618
SUPERBIRD-B2            
1 26095U 00012A   16228.77939725 -.00000103  00000-0  00000+0 0  9997
2 26095   0.0520 258.7783 0001405 241.6884 266.6964  1.00272940 60419
ASIASTAR                
1 26107U 00016A   16228.96694494 -.00000344  00000-0  00000-0 0  9995
2 26107   1.0428  81.9601 0004485  63.1493 272.7941  1.00270170 59908
EUTELSAT 16C            
1 26243U 00019A   16228.17296081  .00000082  00000-0  00000+0 0  9999
2 26243   3.6856  67.8620 0002605  90.3776 242.5286  1.00274370 59750
EUTELSAT 36A            
1 26369U 00028A   16228.96483086 -.00000228  00000-0  00000-0 0  9992
2 26369   0.3819  80.9983 0004172  69.1610 250.5060  1.00271716 59415
TDRS 8                  
1 26388U 00034A   16228.01701990 -.00000232  00000-0  00000-0 0  9998
2 26388   6.9686  58.5519 0006926 154.4400 205.7426  1.00264123 59153
